CCSDS_OMM_VERS = 2.0
CREATION_DATE  = 
ORIGINATOR     = 

OBJECT_NAME    = STARLINK-35826
OBJECT_ID      = 2025-254AD
CENTER_NAME    = EARTH
REF_FRAME      = TEME
TIME_SYSTEM    = UTC
MEAN_ELEMENT_THEORY = SGP/SGP4

EPOCH          = 2025-12-03T05:16:18.003648
MEAN_MOTION    = 15.74280725
ECCENTRICITY   = .00013878
INCLINATION    = 53.1569
RA_OF_ASC_NODE = 322.1120
ARG_OF_PERICENTER = 113.5504
MEAN_ANOMALY   = 246.5662

EPHEMERIS_TYPE = 0
CLASSIFICATION_TYPE = U
NORAD_CAT_ID   = 66375
ELEMENT_SET_NO = 999
REV_AT_EPOCH   = 418
BSTAR          = .19838384E-2
MEAN_MOTION_DOT = .301749E-2
MEAN_MOTION_DDOT = 0

CCSDS_OMM_VERS = 2.0
CREATION_DATE  = 
ORIGINATOR     = 

OBJECT_NAME    = SHIYAN-32 01
OBJECT_ID      = 2025-255A
CENTER_NAME    = EARTH
REF_FRAME      = TEME
TIME_SYSTEM    = UTC
MEAN_ELEMENT_THEORY = SGP/SGP4

EPOCH          = 2025-12-03T05:29:52.633824
MEAN_MOTION    = 15.42271758
ECCENTRICITY   = .00134393
INCLINATION    = 52.9966
RA_OF_ASC_NODE = 223.2797
ARG_OF_PERICENTER = 12.6687
MEAN_ANOMALY   = 347.4652

EPHEMERIS_TYPE = 0
CLASSIFICATION_TYPE = U
NORAD_CAT_ID   = 66376
ELEMENT_SET_NO = 999
REV_AT_EPOCH   = 388
BSTAR          = .59185127E-3
MEAN_MOTION_DOT = .25602E-3
MEAN_MOTION_DDOT = 0

CCSDS_OMM_VERS = 2.0
CREATION_DATE  = 
ORIGINATOR     = 

OBJECT_NAME    = CZ-11 DEB
OBJECT_ID      = 2025-255B
CENTER_NAME    = EARTH
REF_FRAME      = TEME
TIME_SYSTEM    = UTC
MEAN_ELEMENT_THEORY = SGP/SGP4

EPOCH          = 2025-12-03T06:46:13.479744
MEAN_MOTION    = 15.43522949
ECCENTRICITY   = .00139428
INCLINATION    = 52.9967
RA_OF_ASC_NODE = 222.8976
ARG_OF_PERICENTER = 10.5111
MEAN_ANOMALY   = 349.6183

EPHEMERIS_TYPE = 0
CLASSIFICATION_TYPE = U
NORAD_CAT_ID   = 66377
ELEMENT_SET_NO = 999
REV_AT_EPOCH   = 375
BSTAR          = .10068054E-2
MEAN_MOTION_DOT = .45877E-3
MEAN_MOTION_DDOT = 0

CCSDS_OMM_VERS = 2.0
CREATION_DATE  = 
ORIGINATOR     = 

OBJECT_NAME    = SHIYAN-32 02
OBJECT_ID      = 2025-255C
CENTER_NAME    = EARTH
REF_FRAME      = TEME
TIME_SYSTEM    = UTC
MEAN_ELEMENT_THEORY = SGP/SGP4

EPOCH          = 2025-12-03T06:38:56.541120
MEAN_MOTION    = 15.44097281
ECCENTRICITY   = .001243
INCLINATION    = 52.9969
RA_OF_ASC_NODE = 222.8675
ARG_OF_PERICENTER = 10.0538
MEAN_ANOMALY   = 350.0713

EPHEMERIS_TYPE = 0
CLASSIFICATION_TYPE = U
NORAD_CAT_ID   = 66378
ELEMENT_SET_NO = 999
REV_AT_EPOCH   = 375
BSTAR          = .15910386E-2
MEAN_MOTION_DOT = .74401E-3
MEAN_MOTION_DDOT = 0

CCSDS_OMM_VERS = 2.0
CREATION_DATE  = 
ORIGINATOR     = 

OBJECT_NAME    = SHIYAN-32 03
OBJECT_ID      = 2025-255D
CENTER_NAME    = EARTH
REF_FRAME      = TEME
TIME_SYSTEM    = UTC
MEAN_ELEMENT_THEORY = SGP/SGP4

EPOCH          = 2025-12-03T06:55:02.765280
MEAN_MOTION    = 15.42627557
ECCENTRICITY   = .00154679
INCLINATION    = 52.9973
RA_OF_ASC_NODE = 222.9374
ARG_OF_PERICENTER = 13.8345
MEAN_ANOMALY   = 346.3080

EPHEMERIS_TYPE = 0
CLASSIFICATION_TYPE = U
NORAD_CAT_ID   = 66379
ELEMENT_SET_NO = 999
REV_AT_EPOCH   = 377
BSTAR          = .52575283E-3
MEAN_MOTION_DOT = .22987E-3
MEAN_MOTION_DDOT = 0

CCSDS_OMM_VERS = 2.0
CREATION_DATE  = 
ORIGINATOR     = 

OBJECT_NAME    = STARLINK-35139
OBJECT_ID      = 2025-257A
CENTER_NAME    = EARTH
REF_FRAME      = TEME
TIME_SYSTEM    = UTC
MEAN_ELEMENT_THEORY = SGP/SGP4

EPOCH          = 2025-12-03T08:00:01.999872
MEAN_MOTION    = 15.39556256
ECCENTRICITY   = .00010229
INCLINATION    = 53.1588
RA_OF_ASC_NODE = 308.9782
ARG_OF_PERICENTER = 80.9925
MEAN_ANOMALY   = 115.3359

EPHEMERIS_TYPE = 0
CLASSIFICATION_TYPE = U
NORAD_CAT_ID   = 66380
ELEMENT_SET_NO = 999
REV_AT_EPOCH   = 492
BSTAR          = .25825358E-2
MEAN_MOTION_DOT = .104102E-2
MEAN_MOTION_DDOT = 0

CCSDS_OMM_VERS = 2.0
CREATION_DATE  = 
ORIGINATOR     = 

OBJECT_NAME    = STARLINK-35158
OBJECT_ID      = 2025-257B
CENTER_NAME    = EARTH
REF_FRAME      = TEME
TIME_SYSTEM    = UTC
MEAN_ELEMENT_THEORY = SGP/SGP4

EPOCH          = 2025-12-03T08:00:01.999872
MEAN_MOTION    = 15.39552986
ECCENTRICITY   = .00012995
INCLINATION    = 53.1587
RA_OF_ASC_NODE = 308.9738
ARG_OF_PERICENTER = 81.5281
MEAN_ANOMALY   = 116.6385

EPHEMERIS_TYPE = 0
CLASSIFICATION_TYPE = U
NORAD_CAT_ID   = 66381
ELEMENT_SET_NO = 999
REV_AT_EPOCH   = 498
BSTAR          = .21311253E-2
MEAN_MOTION_DOT = .85617E-3
MEAN_MOTION_DDOT = 0

CCSDS_OMM_VERS = 2.0
CREATION_DATE  = 
ORIGINATOR     = 

OBJECT_NAME    = STARLINK-35639
OBJECT_ID      = 2025-257C
CENTER_NAME    = EARTH
REF_FRAME      = TEME
TIME_SYSTEM    = UTC
MEAN_ELEMENT_THEORY = SGP/SGP4

EPOCH          = 2025-12-03T08:00:01.999872
MEAN_MOTION    = 15.39542741
ECCENTRICITY   = .00012879
INCLINATION    = 53.1590
RA_OF_ASC_NODE = 308.9248
ARG_OF_PERICENTER = 85.8077
MEAN_ANOMALY   = 136.2666

EPHEMERIS_TYPE = 0
CLASSIFICATION_TYPE = U
NORAD_CAT_ID   = 66382
ELEMENT_SET_NO = 999
REV_AT_EPOCH   = 498
BSTAR          = .27057376E-2
MEAN_MOTION_DOT = .109111E-2
MEAN_MOTION_DDOT = 0

CCSDS_OMM_VERS = 2.0
CREATION_DATE  = 
ORIGINATOR     = 

OBJECT_NAME    = STARLINK-35690
OBJECT_ID      = 2025-257D
CENTER_NAME    = EARTH
REF_FRAME      = TEME
TIME_SYSTEM    = UTC
MEAN_ELEMENT_THEORY = SGP/SGP4

EPOCH          = 2025-12-03T08:00:01.999872
MEAN_MOTION    = 15.40253069
ECCENTRICITY   = .00015752
INCLINATION    = 53.1594
RA_OF_ASC_NODE = 308.8745
ARG_OF_PERICENTER = 87.9620
MEAN_ANOMALY   = 159.5062

EPHEMERIS_TYPE = 0
CLASSIFICATION_TYPE = U
NORAD_CAT_ID   = 66383
ELEMENT_SET_NO = 999
REV_AT_EPOCH   = 498
BSTAR          = -.24352335E-1
MEAN_MOTION_DOT = -.913536E-2
MEAN_MOTION_DDOT = 0

CCSDS_OMM_VERS = 2.0
CREATION_DATE  = 
ORIGINATOR     = 

OBJECT_NAME    = STARLINK-35662
OBJECT_ID      = 2025-257E
CENTER_NAME    = EARTH
REF_FRAME      = TEME
TIME_SYSTEM    = UTC
MEAN_ELEMENT_THEORY = SGP/SGP4

EPOCH          = 2025-12-03T08:00:01.999872
MEAN_MOTION    = 15.40241316
ECCENTRICITY   = .00015616
INCLINATION    = 53.1595
RA_OF_ASC_NODE = 308.8716
ARG_OF_PERICENTER = 80.7636
MEAN_ANOMALY   = 168.5442

EPHEMERIS_TYPE = 0
CLASSIFICATION_TYPE = U
NORAD_CAT_ID   = 66384
ELEMENT_SET_NO = 999
REV_AT_EPOCH   = 498
BSTAR          = -.23943032E-1
MEAN_MOTION_DOT = -.899067E-2
MEAN_MOTION_DDOT = 0

CCSDS_OMM_VERS = 2.0
CREATION_DATE  = 
ORIGINATOR     = 

OBJECT_NAME    = STARLINK-35659
OBJECT_ID      = 2025-257F
CENTER_NAME    = EARTH
REF_FRAME      = TEME
TIME_SYSTEM    = UTC
MEAN_ELEMENT_THEORY = SGP/SGP4

EPOCH          = 2025-12-03T08:00:01.999872
MEAN_MOTION    = 15.39551814
ECCENTRICITY   = .00013486
INCLINATION    = 53.1592
RA_OF_ASC_NODE = 308.9220
ARG_OF_PERICENTER = 91.3730
MEAN_ANOMALY   = 132.5363

EPHEMERIS_TYPE = 0
CLASSIFICATION_TYPE = U
NORAD_CAT_ID   = 66385
ELEMENT_SET_NO = 999
REV_AT_EPOCH   = 498
BSTAR          = .22502041E-2
MEAN_MOTION_DOT = .90478E-3
MEAN_MOTION_DDOT = 0

CCSDS_OMM_VERS = 2.0
CREATION_DATE  = 
ORIGINATOR     = 

OBJECT_NAME    = STARLINK-35651
OBJECT_ID      = 2025-257G
CENTER_NAME    = EARTH
REF_FRAME      = TEME
TIME_SYSTEM    = UTC
MEAN_ELEMENT_THEORY = SGP/SGP4

EPOCH          = 2025-12-03T08:00:01.999872
MEAN_MOTION    = 15.43431112
ECCENTRICITY   = .00014877
INCLINATION    = 53.1590
RA_OF_ASC_NODE = 308.8341
ARG_OF_PERICENTER = 87.7559
MEAN_ANOMALY   = 179.9330

EPHEMERIS_TYPE = 0
CLASSIFICATION_TYPE = U
NORAD_CAT_ID   = 66386
ELEMENT_SET_NO = 999
REV_AT_EPOCH   = 498
BSTAR          = -.49535446E-1
MEAN_MOTION_DOT = -.2005367E-1
MEAN_MOTION_DDOT = 0

