STARLINK-35826          
1 66375U 25254AD  25337.21965282  .00301749  00000+0  19838-2 0  9994
2 66375  53.1569 322.1120 0001387 113.5504 246.5662 15.74280725  4182
SHIYAN-32 01            
1 66376U 25255A   25337.22908141  .00025602  00000+0  59185-3 0  9999
2 66376  52.9966 223.2797 0013439  12.6687 347.4652 15.42271758  3881
CZ-11 DEB               
1 66377U 25255B   25337.28210046  .00045877  00000+0  10068-2 0  9998
2 66377  52.9967 222.8976 0013942  10.5111 349.6183 15.43522949  3756
SHIYAN-32 02            
1 66378U 25255C   25337.27704330  .00074401  00000+0  15910-2 0  9998
2 66378  52.9969 222.8675 0012430  10.0538 350.0713 15.44097281  3756
SHIYAN-32 03            
1 66379U 25255D   25337.28822645  .00022987  00000+0  52575-3 0  9991
2 66379  52.9973 222.9374 0015467  13.8345 346.3080 15.42627557  3779
STARLINK-35139          
1 66380U 25257A   25337.33335648  .00104102  00000+0  25825-2 0  9990
2 66380  53.1588 308.9782 0001022  80.9925 115.3359 15.39556256  4929
STARLINK-35158          
1 66381U 25257B   25337.33335648  .00085617  00000+0  21311-2 0  9996
2 66381  53.1587 308.9738 0001299  81.5281 116.6385 15.39552986  4983
STARLINK-35639          
1 66382U 25257C   25337.33335648  .00109111  00000+0  27057-2 0  9996
2 66382  53.1590 308.9248 0001287  85.8077 136.2666 15.39542741  4989
STARLINK-35690          
1 66383U 25257D   25337.33335648 -.00913536  00000+0 -24352-1 0  9997
2 66383  53.1594 308.8745 0001575  87.9620 159.5062 15.40253069  4984
STARLINK-35662          
1 66384U 25257E   25337.33335648 -.00899067  00000+0 -23943-1 0  9995
2 66384  53.1595 308.8716 0001561  80.7636 168.5442 15.40241316  4981
STARLINK-35659          
1 66385U 25257F   25337.33335648  .00090478  00000+0  22502-2 0  9994
2 66385  53.1592 308.9220 0001348  91.3730 132.5363 15.39551814  4984
STARLINK-35651          
1 66386U 25257G   25337.33335648 -.02005367  00000+0 -49535-1 0  9996
2 66386  53.1590 308.8341 0001487  87.7559 179.9330 15.43431112  4980
